[{"OBJECT_NAME":"STARLINK-32914","OBJECT_ID":"2025-037K","EPOCH":"2026-03-09T21:39:29.593440","MEAN_MOTION":14.98325111,"ECCENTRICITY":0.00022735,"INCLINATION":70.0068,"RA_OF_ASC_NODE":353.9263,"ARG_OF_PERICENTER":273.1481,"MEAN_ANOMALY":86.9418,"EPHEMERIS_TYPE":0,"CLASSIFICATION_TYPE":"U","NORAD_CAT_ID":63086,"ELEMENT_SET_NO":999,"REV_AT_EPOCH":5863,"BSTAR":0.00074045257,"MEAN_MOTION_DOT":8.752e-5,"MEAN_MOTION_DDOT":0},{"OBJECT_NAME":"CZ-6A DEB","OBJECT_ID":"2022-151ADY","EPOCH":"2026-03-09T03:31:51.275136","MEAN_MOTION":14.90358805,"ECCENTRICITY":0.00492463,"INCLINATION":98.6182,"RA_OF_ASC_NODE":136.027,"ARG_OF_PERICENTER":205.5066,"MEAN_ANOMALY":154.3719,"EPHEMERIS_TYPE":0,"CLASSIFICATION_TYPE":"U","NORAD_CAT_ID":56600,"ELEMENT_SET_NO":999,"REV_AT_EPOCH":16160,"BSTAR":0.0054644315,"MEAN_MOTION_DOT":0.00054726,"MEAN_MOTION_DDOT":0}]
